[{"OBJECT_NAME":"STARLINK-11438 [DTC]","OBJECT_ID":"2025-024K","EPOCH":"2026-03-09T07:58:32.707200","MEAN_MOTION":15.7093921,"ECCENTRICITY":0.00018152,"INCLINATION":42.9984,"RA_OF_ASC_NODE":183.3164,"ARG_OF_PERICENTER":245.9264,"MEAN_ANOMALY":114.1414,"EPHEMERIS_TYPE":0,"CLASSIFICATION_TYPE":"U","NORAD_CAT_ID":62888,"ELEMENT_SET_NO":999,"REV_AT_EPOCH":6341,"BSTAR":0.0017095744,"MEAN_MOTION_DOT":0.0022592,"MEAN_MOTION_DDOT":0},{"OBJECT_NAME":"OBJECT AA","OBJECT_ID":"2018-111AA","EPOCH":"2026-03-09T23:36:11.109888","MEAN_MOTION":15.74757696,"ECCENTRICITY":0.00074829,"INCLINATION":96.9708,"RA_OF_ASC_NODE":294.3811,"ARG_OF_PERICENTER":159.1179,"MEAN_ANOMALY":201.0394,"EPHEMERIS_TYPE":0,"CLASSIFICATION_TYPE":"U","NORAD_CAT_ID":43900,"ELEMENT_SET_NO":999,"REV_AT_EPOCH":40295,"BSTAR":0.00046694108,"MEAN_MOTION_DOT":0.00068892,"MEAN_MOTION_DDOT":0}]
